[{"OBJECT_NAME":"STARLINK-35751","OBJECT_ID":"2025-244C","EPOCH":"2026-03-09T18:24:28.018080","MEAN_MOTION":15.30206623,"ECCENTRICITY":7.717e-5,"INCLINATION":53.16,"RA_OF_ASC_NODE":229.3915,"ARG_OF_PERICENTER":106.0153,"MEAN_ANOMALY":254.0933,"EPHEMERIS_TYPE":0,"CLASSIFICATION_TYPE":"U","NORAD_CAT_ID":66208,"ELEMENT_SET_NO":999,"REV_AT_EPOCH":2167,"BSTAR":0.00085508781,"MEAN_MOTION_DOT":0.00025057,"MEAN_MOTION_DDOT":0},{"OBJECT_NAME":"OBJECT A","OBJECT_ID":"2025-234A","EPOCH":"2026-03-09T23:03:34.210368","MEAN_MOTION":15.32505956,"ECCENTRICITY":0.00130678,"INCLINATION":97.4388,"RA_OF_ASC_NODE":139.352,"ARG_OF_PERICENTER":148.634,"MEAN_ANOMALY":211.5684,"EPHEMERIS_TYPE":0,"CLASSIFICATION_TYPE":"U","NORAD_CAT_ID":66053,"ELEMENT_SET_NO":999,"REV_AT_EPOCH":2164,"BSTAR":0.0014840662,"MEAN_MOTION_DOT":0.00046856,"MEAN_MOTION_DDOT":0}]
